[{"OBJECT_NAME":"LEMUR-1","OBJECT_ID":"2014-033AL","EPOCH":"2026-04-25T21:00:42.610752","MEAN_MOTION":14.85012372,"ECCENTRICITY":0.00472388,"INCLINATION":97.7809,"RA_OF_ASC_NODE":266.8712,"ARG_OF_PERICENTER":249.1252,"MEAN_ANOMALY":110.4901,"EPHEMERIS_TYPE":0,"CLASSIFICATION_TYPE":"U","NORAD_CAT_ID":40044,"ELEMENT_SET_NO":999,"REV_AT_EPOCH":63770,"BSTAR":0.00025972156,"MEAN_MOTION_DOT":2.204e-5,"MEAN_MOTION_DDOT":0},{"OBJECT_NAME":"LEMUR-2-GREENBERG","OBJECT_ID":"2017-042N","EPOCH":"2026-04-25T10:55:09.915168","MEAN_MOTION":15.29643379,"ECCENTRICITY":0.00093104,"INCLINATION":97.3813,"RA_OF_ASC_NODE":296.3955,"ARG_OF_PERICENTER":183.672,"MEAN_ANOMALY":176.4454,"EPHEMERIS_TYPE":0,"CLASSIFICATION_TYPE":"U","NORAD_CAT_ID":42837,"ELEMENT_SET_NO":999,"REV_AT_EPOCH":48032,"BSTAR":0.0006588307,"MEAN_MOTION_DOT":0.00018899,"MEAN_MOTION_DDOT":0},{"OBJECT_NAME":"LEMUR-2-ANDIS","OBJECT_ID":"2017-042P","EPOCH":"2026-04-25T11:11:22.003296","MEAN_MOTION":15.32664227,"ECCENTRICITY":0.00093428,"INCLINATION":97.368,"RA_OF_ASC_NODE":296.4255,"ARG_OF_PERICENTER":186.8784,"MEAN_ANOMALY":173.2331,"EPHEMERIS_TYPE":0,"CLASSIFICATION_TYPE":"U","NORAD_CAT_ID":42838,"ELEMENT_SET_NO":999,"REV_AT_EPOCH":48037,"BSTAR":0.00076723726,"MEAN_MOTION_DOT":0.00024204,"MEAN_MOTION_DDOT":0},{"OBJECT_NAME":"LEMUR-2-MONSON","OBJECT_ID":"2017-042Q","EPOCH":"2026-04-25T17:53:56.452992","MEAN_MOTION":15.26517576,"ECCENTRICITY":0.0007303,"INCLINATION":97.407,"RA_OF_ASC_NODE":296.7303,"ARG_OF_PERICENTER":169.3007,"MEAN_ANOMALY":190.8389,"EPHEMERIS_TYPE":0,"CLASSIFICATION_TYPE":"U","NORAD_CAT_ID":42839,"ELEMENT_SET_NO":999,"REV_AT_EPOCH":48016,"BSTAR":0.00053754932,"MEAN_MOTION_DOT":0.00013989,"MEAN_MOTION_DDOT":0},{"OBJECT_NAME":"LEMUR-2-FURIAUS","OBJECT_ID":"2017-042R","EPOCH":"2026-04-25T11:23:59.834976","MEAN_MOTION":15.28405316,"ECCENTRICITY":0.00068063,"INCLINATION":97.3767,"RA_OF_ASC_NODE":294.4935,"ARG_OF_PERICENTER":241.8843,"MEAN_ANOMALY":118.1709,"EPHEMERIS_TYPE":0,"CLASSIFICATION_TYPE":"U","NORAD_CAT_ID":42840,"ELEMENT_SET_NO":999,"REV_AT_EPOCH":48015,"BSTAR":0.00085570955,"MEAN_MOTION_DOT":0.00023655,"MEAN_MOTION_DDOT":0},{"OBJECT_NAME":"LEMUR-2-PETERG","OBJECT_ID":"2017-042S","EPOCH":"2026-04-25T22:32:46.813344","MEAN_MOTION":15.3178631,"ECCENTRICITY":0.00047527,"INCLINATION":97.4,"RA_OF_ASC_NODE":300.9749,"ARG_OF_PERICENTER":154.3868,"MEAN_ANOMALY":205.761,"EPHEMERIS_TYPE":0,"CLASSIFICATION_TYPE":"U","NORAD_CAT_ID":42841,"ELEMENT_SET_NO":999,"REV_AT_EPOCH":48043,"BSTAR":0.00073347881,"MEAN_MOTION_DOT":0.00022482,"MEAN_MOTION_DDOT":0},{"OBJECT_NAME":"LEMUR-2-DEMBITZ","OBJECT_ID":"2017-042T","EPOCH":"2026-04-25T18:15:42.175584","MEAN_MOTION":15.2864434,"ECCENTRICITY":0.00068974,"INCLINATION":97.3829,"RA_OF_ASC_NODE":297.7514,"ARG_OF_PERICENTER":192.4,"MEAN_ANOMALY":167.7071,"EPHEMERIS_TYPE":0,"CLASSIFICATION_TYPE":"U","NORAD_CAT_ID":42842,"ELEMENT_SET_NO":999,"REV_AT_EPOCH":48033,"BSTAR":0.00057661539,"MEAN_MOTION_DOT":0.00016016,"MEAN_MOTION_DDOT":0},{"OBJECT_NAME":"LEMUR-2-ZACHARY","OBJECT_ID":"2017-042W","EPOCH":"2026-04-25T18:22:35.030208","MEAN_MOTION":15.45903923,"ECCENTRICITY":0.00041201,"INCLINATION":97.3645,"RA_OF_ASC_NODE":306.4552,"ARG_OF_PERICENTER":189.5336,"MEAN_ANOMALY":170.5836,"EPHEMERIS_TYPE":0,"CLASSIFICATION_TYPE":"U","NORAD_CAT_ID":42845,"ELEMENT_SET_NO":999,"REV_AT_EPOCH":48109,"BSTAR":0.00081821495,"MEAN_MOTION_DOT":0.0003985,"MEAN_MOTION_DDOT":0},{"OBJECT_NAME":"LEMUR-2-KADI","OBJECT_ID":"2018-014E","EPOCH":"2026-04-25T18:39:12.000672","MEAN_MOTION":15.76313506,"ECCENTRICITY":0.00071056,"INCLINATION":97.4558,"RA_OF_ASC_NODE":43.5675,"ARG_OF_PERICENTER":95.8139,"MEAN_ANOMALY":264.3936,"EPHEMERIS_TYPE":0,"CLASSIFICATION_TYPE":"U","NORAD_CAT_ID":43184,"ELEMENT_SET_NO":999,"REV_AT_EPOCH":45277,"BSTAR":0.0011647286,"MEAN_MOTION_DOT":0.00186558,"MEAN_MOTION_DDOT":0},{"OBJECT_NAME":"LEMUR-2-AMANDA-SVANTE","OBJECT_ID":"2021-034B","EPOCH":"2026-04-25T20:49:22.844064","MEAN_MOTION":15.31224714,"ECCENTRICITY":0.0004095,"INCLINATION":97.5781,"RA_OF_ASC_NODE":192.9006,"ARG_OF_PERICENTER":98.1233,"MEAN_ANOMALY":262.0472,"EPHEMERIS_TYPE":0,"CLASSIFICATION_TYPE":"U","NORAD_CAT_ID":48269,"ELEMENT_SET_NO":999,"REV_AT_EPOCH":27304,"BSTAR":0.0011172367,"MEAN_MOTION_DOT":0.00033737,"MEAN_MOTION_DDOT":0},{"OBJECT_NAME":"LEMUR-2-SPECIAL-K","OBJECT_ID":"2021-034F","EPOCH":"2026-04-25T19:18:47.469312","MEAN_MOTION":15.52802449,"ECCENTRICITY":0.00023929,"INCLINATION":97.5658,"RA_OF_ASC_NODE":199.4049,"ARG_OF_PERICENTER":163.2726,"MEAN_ANOMALY":196.8606,"EPHEMERIS_TYPE":0,"CLASSIFICATION_TYPE":"U","NORAD_CAT_ID":48273,"ELEMENT_SET_NO":999,"REV_AT_EPOCH":27353,"BSTAR":0.0015508755,"MEAN_MOTION_DOT":0.00096959,"MEAN_MOTION_DDOT":0},{"OBJECT_NAME":"LEMUR-2-EMBRIONOVIS","OBJECT_ID":"2023-084AQ","EPOCH":"2026-04-25T20:29:08.352960","MEAN_MOTION":15.36167939,"ECCENTRICITY":0.00100838,"INCLINATION":97.6215,"RA_OF_ASC_NODE":258.1235,"ARG_OF_PERICENTER":137.1504,"MEAN_ANOMALY":223.0527,"EPHEMERIS_TYPE":0,"CLASSIFICATION_TYPE":"U","NORAD_CAT_ID":56970,"ELEMENT_SET_NO":999,"REV_AT_EPOCH":15964,"BSTAR":0.00047868421,"MEAN_MOTION_DOT":0.00016829,"MEAN_MOTION_DDOT":0},{"OBJECT_NAME":"LEMUR-2-MANO","OBJECT_ID":"2023-100E","EPOCH":"2026-04-25T15:10:37.917120","MEAN_MOTION":15.79158447,"ECCENTRICITY":0.00142971,"INCLINATION":99.4418,"RA_OF_ASC_NODE":154.4484,"ARG_OF_PERICENTER":172.4901,"MEAN_ANOMALY":187.6577,"EPHEMERIS_TYPE":0,"CLASSIFICATION_TYPE":"U","NORAD_CAT_ID":57390,"ELEMENT_SET_NO":999,"REV_AT_EPOCH":15384,"BSTAR":0.001564888,"MEAN_MOTION_DOT":0.0028932,"MEAN_MOTION_DDOT":0},{"OBJECT_NAME":"LEMUR-2-DEVERILL-M-T","OBJECT_ID":"2023-100F","EPOCH":"2026-04-25T14:48:02.099808","MEAN_MOTION":15.37195428,"ECCENTRICITY":0.00066889,"INCLINATION":99.4529,"RA_OF_ASC_NODE":139.3156,"ARG_OF_PERICENTER":203.2008,"MEAN_ANOMALY":156.8928,"EPHEMERIS_TYPE":0,"CLASSIFICATION_TYPE":"U","NORAD_CAT_ID":57391,"ELEMENT_SET_NO":999,"REV_AT_EPOCH":15316,"BSTAR":0.00063872855,"MEAN_MOTION_DOT":0.00023214,"MEAN_MOTION_DDOT":0},{"OBJECT_NAME":"LEMUR-2-BASS","OBJECT_ID":"2023-174D","EPOCH":"2026-04-25T18:48:52.302816","MEAN_MOTION":15.4139268,"ECCENTRICITY":0.00065567,"INCLINATION":97.3843,"RA_OF_ASC_NODE":199.8366,"ARG_OF_PERICENTER":10.7465,"MEAN_ANOMALY":349.392,"EPHEMERIS_TYPE":0,"CLASSIFICATION_TYPE":"U","NORAD_CAT_ID":58259,"ELEMENT_SET_NO":999,"REV_AT_EPOCH":13728,"BSTAR":0.00039914368,"MEAN_MOTION_DOT":0.00016614,"MEAN_MOTION_DDOT":0},{"OBJECT_NAME":"LEMUR-2-JK0903EM1407","OBJECT_ID":"2023-174CJ","EPOCH":"2026-04-25T19:08:49.081920","MEAN_MOTION":15.49069223,"ECCENTRICITY":0.00036797,"INCLINATION":97.3891,"RA_OF_ASC_NODE":204.9186,"ARG_OF_PERICENTER":295.7692,"MEAN_ANOMALY":64.3179,"EPHEMERIS_TYPE":0,"CLASSIFICATION_TYPE":"U","NORAD_CAT_ID":58336,"ELEMENT_SET_NO":999,"REV_AT_EPOCH":13761,"BSTAR":0.00044730029,"MEAN_MOTION_DOT":0.00024213,"MEAN_MOTION_DDOT":0}]
